{"fetched_at":"2026-07-22T07:10:03.774Z","source":"https://celestrak.org/NORAD/elements/gp.php?NAME=SENTINEL&FORMAT=JSON","constellation":"sentinel-2","records":[{"OBJECT_NAME":"SENTINEL-2A","OBJECT_ID":"2015-028A","EPOCH":"2026-07-21T14:53:14.166240","CLASSIFICATION_TYPE":"U","MEAN_MOTION":14.30816331,"ECCENTRICITY":0.00013243,"INCLINATION":98.5668,"RA_OF_ASC_NODE":276.9811,"ARG_OF_PERICENTER":96.2802,"MEAN_ANOMALY":263.8532,"EPHEMERIS_TYPE":0,"NORAD_CAT_ID":40697,"ELEMENT_SET_NO":999,"REV_AT_EPOCH":57865,"BSTAR":0.00011465198,"MEAN_MOTION_DOT":0.00000257,"MEAN_MOTION_DDOT":0},{"OBJECT_NAME":"SENTINEL-2B","OBJECT_ID":"2017-013A","EPOCH":"2026-07-21T14:42:52.720416","CLASSIFICATION_TYPE":"U","MEAN_MOTION":14.30817334,"ECCENTRICITY":0.00012446,"INCLINATION":98.5676,"RA_OF_ASC_NODE":276.8998,"ARG_OF_PERICENTER":93.7665,"MEAN_ANOMALY":266.366,"EPHEMERIS_TYPE":0,"NORAD_CAT_ID":42063,"ELEMENT_SET_NO":999,"REV_AT_EPOCH":48956,"BSTAR":0.00014647793,"MEAN_MOTION_DOT":0.0000034,"MEAN_MOTION_DDOT":0},{"OBJECT_NAME":"SENTINEL-2C","OBJECT_ID":"2024-157A","EPOCH":"2026-07-21T10:31:09.067296","CLASSIFICATION_TYPE":"U","MEAN_MOTION":14.30816878,"ECCENTRICITY":0.00010211,"INCLINATION":98.5679,"RA_OF_ASC_NODE":276.7335,"ARG_OF_PERICENTER":107.9219,"MEAN_ANOMALY":252.2075,"EPHEMERIS_TYPE":0,"NORAD_CAT_ID":60989,"ELEMENT_SET_NO":999,"REV_AT_EPOCH":9788,"BSTAR":0.00003624797,"MEAN_MOTION_DOT":5.1e-7,"MEAN_MOTION_DDOT":0}]}
