{"epoch":1784710044,"count":18256,"objects":[{"id":"40697","name":"SENTINEL 2A","type":"PAYLOAD","l1":"1 40697U 15028A   26202.62030285  .00000257  00000-0  11465-3 0  9994","l2":"2 40697  98.5668 276.9811 0001324  96.2802 263.8532 14.30816331578651"},{"id":"42063","name":"SENTINEL 2B","type":"PAYLOAD","l1":"1 42063U 17013A   26202.61311019  .00000340  00000-0  14648-3 0  9994","l2":"2 42063  98.5676 276.8998 0001245  93.7665 266.3660 14.30817334489560"},{"id":"60989","name":"SENTINEL-2C","type":"PAYLOAD","l1":"1 60989U 24157A   26202.43829939  .00000051  00000-0  36248-4 0  9993","l2":"2 60989  98.5679 276.7335 0001021 107.9219 252.2075 14.30816878 97885"}]}